{
  "norad_id": 62501,
  "name": "STARLINK-32691",
  "history": [
    {
      "epoch": "2026-03-28T17:28:15.765600",
      "apogee_km": 484.08438065481096,
      "perigee_km": 481.86096945351164,
      "latitude_deg": -30.903293636683575,
      "longitude_deg": 139.98418399994262,
      "semi_major_axis_km": 6861.109675054161,
      "eccentricity": 0.00016203,
      "inclination_deg": 42.9998,
      "raan_deg": 181.4122,
      "arg_perigee_deg": 284.2243,
      "mean_anomaly_deg": 75.8428,
      "mean_motion_rev_day": 15.27605522
    }
  ]
}